satname,norad_id,inclination_deg,eccentricity,mean_motion_rev_per_day,perigee_km,apogee_km,l1,l2
STARLINK-1008,44714,53.1437,0.0001166,15.28612678,479.15897360924737,480.75828150959387,1 44714U 19074B   26028.00003472  .01411218  00000+0  45968-1 0  9995,2 44714  53.1437   7.9979 0001166 108.2239  50.0181 15.28612678  5742
STARLINK-1012,44718,53.1601,0.0001682,15.30162834,474.17329015846735,476.4787951260123,1 44718U 19074F   26028.00003472  .00017582  00000+0  60502-3 0  9997,2 44718  53.1601   7.8082 0001682  97.3359 286.3359 15.30162834  5699
STARLINK-1017,44723,53.0464,0.0001902,15.20873183,501.89665252078885,504.5143152016499,1 44723U 19074L   26027.90587533  .00020369  00000+0  92240-3 0  9997,2 44723  53.0464 359.1351 0001902  75.2747 284.8459 15.20873183342754
STARLINK-1019,44724,53.0517,0.0010925,15.68680403,355.3103375535047,370.0390110618673,1 44724U 19074M   26028.00003472  .00152536  00000+0  12909-2 0  9990,2 44724  53.0517 339.4835 0010925  57.1097 250.2786 15.68680403  5742
STARLINK-1020,44725,53.0545,0.0001319,15.06405398,546.2815626025031,548.1084651877673,1 44725U 19074N   26027.28420042  .00001570  00000+0  12423-3 0  9999,2 44725  53.0545  32.4948 0001319  91.4675 268.6465 15.06405398342223
STARLINK-1031,44736,53.0473,0.0007538,15.73983295,342.45608613512013,352.5956955093243,1 44736U 19074Z   26028.00003472  .00135758  00000+0  92313-3 0  9998,2 44736  53.0473 324.8901 0007538  90.2727 155.4893 15.73983295  6020
STARLINK-1036,44741,53.0554,0.0002572,15.46879711,424.11051894524826,427.6104952629021,1 44741U 19074AE  26028.00003472  .00125001  00000+0  24154-2 0  9991,2 44741  53.0554  24.2358 0002572  82.9427 102.2153 15.46879711  5756
STARLINK-1039,44744,53.0504,0.000445,15.18036887,508.70819421099077,514.8402151831724,1 44744U 19074AH  26027.31751845  .00060458  00000+0  29246-2 0  9992,2 44744  53.0504  44.7320 0004450  57.0130 303.1291 15.18036887342062
STARLINK-1042,44747,53.0451,0.0003696,15.47635424,421.13145235900174,426.1593299025253,1 44747U 19074AL  26027.73974400  .00030710  00000+0  59139-3 0  9998,2 44747  53.0451 290.9389 0003696  75.9967 284.1451 15.47635424343728
STARLINK-1043,44748,53.0527,0.0002644,15.50640057,413.0600647907022,416.6521995589965,1 44748U 19074AM  26027.32167796  .00046050  00000+0  79294-3 0  9994,2 44748  53.0527  33.6557 0002644  20.4514 339.6600 15.50640057342225
STARLINK-1046,44751,53.0561,0.0003857,15.39140625,446.01618981856063,451.2823727559471,1 44751U 19074AQ  26027.32018898  .00105910  00000+0  26620-2 0  9991,2 44751  53.0561  46.9178 0003857  45.7706 314.3614 15.39140625342030
STARLINK-1047,44752,53.0719,0.0004818,15.3155362,467.8763819552205,474.4763803292881,1 44752U 19074AR  26027.13770092  .00017067  00000+0  56289-3 0  9992,2 44752  53.0719 339.9684 0004818  87.7499 272.4053 15.31553620342975
STARLINK-1048,44753,53.0549,0.0003804,15.42855683,435.0932804377735,440.27875859102005,1 44753U 19074AS  26028.00003472  .00112686  00000+0  25016-2 0  9997,2 44753  53.0549   3.9235 0003804  81.4183 196.3116 15.42855683  5563
STARLINK-1053,44758,53.0331,0.0003051,15.76704724,337.73492461943533,341.83420035686595,1 44758U 19074AX  26028.00003472  .00083762  00000+0  51112-3 0  9991,2 44758  53.0331 288.6733 0003051 125.4825  93.4401 15.76704724  5872
STARLINK-1060,44765,53.0408,0.0001994,15.99414204,274.7161203018668,277.3698072714251,1 44765U 19074BE  26028.00003472  .00444060  95144-4  88023-3 0  9990,2 44765  53.0408 328.4268 0001994 132.5924 242.2826 15.99414204  5965
STARLINK-1063,44768,53.1494,0.0001632,15.279892,480.7045318383507,482.94362313404326,1 44768U 19074BH  26028.00003472  .01583056  00000+0  52003-1 0  9992,2 44768  53.1494  48.3493 0001632  75.1714 333.5780 15.27989200  5642
STARLINK-1067,44771,53.0551,0.0005025,15.46783393,422.72380951722516,429.56211087722386,1 44771U 19074BL  26028.00003472  .00099102  00000+0  19290-2 0  9991,2 44771  53.0551  40.1764 0005025  64.4087 225.5595 15.46783393  5824
STARLINK-1068,44772,53.0537,0.0002297,15.53575761,404.73749466357185,407.85426312813615,1 44772U 19074BM  26028.00003472  .00150720  00000+0  22893-2 0  9999,2 44772  53.0537  17.7194 0002297  89.4876  60.2538 15.53575761  5644
STARLINK-1112,44925,53.0404,0.0001924,15.81436958,325.08627994193375,327.66617663217767,1 44925U 20001M   26028.00003472  .00298647  00000+0  14271-2 0  9993,2 44925  53.0404  89.4008 0001924 319.1651 127.1060 15.81436958  5836
STARLINK-1114,44927,53.0526,0.0003115,15.43180777,434.60591884191126,438.8515802038637,1 44927U 20001P   26028.00003472  .00075612  00000+0  16715-2 0  9995,2 44927  53.0526 163.6451 0003115 332.7194 189.7450 15.43180777  5769
STARLINK-1123,44930,53.0539,0.000145,15.06404253,546.1943494856341,548.2026967873444,1 44930U 20001S   26027.78733401  .00000835  00000+0  74955-4 0  9992,2 44930  53.0539 170.2376 0001450  74.3089 285.8060 15.06404253333686
STARLINK-1144,44933,53.0322,0.0007271,15.97985792,275.16660752056396,284.84888160810897,1 44933U 20001V   26028.00003472  .00464188  10142-3  99428-3 0  9997,2 44933  53.0322  59.8179 0007271  25.4301  25.0244 15.97985792  5960
STARLINK-1094,44941,53.1397,0.0001424,15.25999357,486.8084872950112,488.7639022208796,1 44941U 20001AD  26028.00003472  .01511664  00000+0  52956-1 0  9990,2 44941  53.1397 148.5189 0001424  91.1391 335.3741 15.25999357  5751
STARLINK-1122,44949,53.1409,0.000123,15.25973157,487.02026537093025,488.7093018096939,1 44949U 20001AM  26028.00003472  .01538067  00000+0  53834-1 0  9990,2 44949  53.1409 148.5072 0001230  75.1897 236.7914 15.25973157  5747
STARLINK-1080,44961,53.0532,0.0005692,15.41861149,436.73537276555,444.49784187212117,1 44961U 20001AZ  26028.00003472  .00083643  00000+0  19288-2 0  9994,2 44961  53.0532 121.7290 0005692 341.5254 181.3937 15.41861149  5661
STARLINK-1090,44968,53.0557,0.0001807,15.06419465,545.900501454692,548.4033008635715,1 44968U 20001BG  26027.69149666 -.00004386  00000+0 -27557-3 0  9999,2 44968  53.0557 130.6674 0001807 100.5592 259.5600 15.06419465334236
STARLINK-1132,45044,53.159,0.0001963,15.37174669,453.1275062063396,455.80998722249933,1 45044U 20006A   26027.46628634  .00082377  00000+0  22168-2 0  9998,2 45044  53.1590  88.5283 0001963  70.3539 289.7677 15.37174669330575
STARLINK-1131,45047,53.1002,0.0001225,15.17305505,513.143823019137,514.8323936706811,1 45047U 20006D   26028.00003472  .00913606  00000+0  41895-1 0  9994,2 45047  53.1002 109.5953 0001225  84.0940 266.5745 15.17305505  5743
STARLINK-1134,45048,53.0359,0.0004871,15.37898887,448.9964148751651,455.6506495256335,1 45048U 20006E   26027.38297753  .00093730  00000+0  24579-2 0  9990,2 45048  53.0359  73.9737 0004871  55.2420 304.9040 15.37898887330776
STARLINK-1156,45054,53.0735,8.04e-05,15.11253737,531.8197768705841,532.9309872616213,1 45054U 20006L   26028.00003472  .01432346  00000+0  76987-1 0  9990,2 45054  53.0735 109.2375 0000804  61.8932 347.5694 15.11253737  5694
STARLINK-1159,45057,53.05,0.0004472,15.67878481,361.9574392978602,367.98847684435805,1 45057U 20006P   26028.00003472  .00206606  00000+0  17976-2 0  9994,2 45057  53.0500  77.5554 0004472 328.3465 232.3622 15.67878481  5906
STARLINK-1166,45060,53.0539,0.000157,15.39514209,446.47319638978934,448.6164604839187,1 45060U 20006S   26027.82653656  .00085173  00000+0  21228-2 0  9991,2 45060  53.0539 106.5965 0001570  41.6001 318.5122 15.39514209330354
STARLINK-1169,45061,53.0789,0.0001278,15.12950945,526.3238326265046,528.0888383830597,1 45061U 20006T   26028.00003472  .00090409  00000+0  50223-2 0  9993,2 45061  53.0789 109.1952 0001278 124.3384 129.1740 15.12950945  5695
STARLINK-1171,45062,53.0493,0.000618,15.48729649,416.23971381153115,424.64275651019034,1 45062U 20006U   26027.53863285  .00105138  00000+0  19103-2 0  9995,2 45062  53.0493  87.9902 0006180 251.6214 108.4122 15.48729649330597
STARLINK-1133,45064,53.1567,0.0002177,15.29342234,476.28486850060654,479.2699336308315,1 45064U 20006W   26027.58170161  .00035643  00000+0  12421-2 0  9995,2 45064  53.1567  88.7377 0002177  39.5470 320.5689 15.29342234330580
STARLINK-1167,45071,53.1594,0.0001776,15.29365961,476.48889339630114,478.92408900437476,1 45071U 20006AD  26027.58789639  .00013750  00000+0  48778-3 0  9999,2 45071  53.1594  88.5229 0001776  55.2601 304.8566 15.29365961330588
STARLINK-1168,45072,53.1598,0.0001457,15.29359564,476.72670973750064,478.72450810174087,1 45072U 20006AE  26027.46697196  .00001135  00000+0  51647-4 0  9997,2 45072  53.1598  89.1441 0001457  89.5457 270.5710 15.29359564330561
STARLINK-1172,45074,53.1596,0.0001336,15.3015029,474.4478708706565,476.2791262038663,1 45074U 20006AG  26028.00003472  .00076731  00000+0  25801-2 0  9993,2 45074  53.1596  86.8244 0001336  83.9686 185.5074 15.30150290  5681
STARLINK-1153,45080,53.1608,0.0001161,15.29357936,476.93450807760655,478.52644050513663,1 45080U 20006AN  26027.44159272  .00001874  00000+0  77237-4 0  9995,2 45080  53.1608  89.1201 0001161  83.4110 276.7023 15.29357936330563
STARLINK-1151,45081,53.0531,0.0008624,15.50425547,409.6238657071626,421.34150093695644,1 45081U 20006AP  26027.54039851  .00111949  00000+0  19127-2 0  9994,2 45081  53.0531  79.1600 0008624   1.4792 358.6240 15.50425547330713
STARLINK-1185,45087,53.054,0.0001322,15.06419137,546.2373830847973,548.0684297360522,1 45087U 20006AV  26027.40952038  .00009956  00000+0  68596-3 0  9995,2 45087  53.0540  71.9339 0001322  92.6138 267.5003 15.06419137330806
STARLINK-1183,45088,53.0536,0.0001798,15.06413937,545.9236733792595,548.4140133605351,1 45088U 20006AW  26027.49798305  .00011102  00000+0  76276-3 0  9990,2 45088  53.0536  71.5372 0001798  83.2745 276.8449 15.06413937330812
STARLINK-1152,45096,53.0432,0.0004539,15.33233036,463.06727014776425,469.2805355853852,1 45096U 20006BE  26027.73156414  .00034750  00000+0  10733-2 0  9994,2 45096  53.0432  38.9033 0004539  58.9780 301.1666 15.33233036331297
